GALAXY 17           [PM]
1 31307C 07016B   21364.01771991 -.00000084  00000-0  00000-0 0  3648
2 31307   0.0120   8.7183 0002693 271.4474  93.8876  1.00272029    10
INTELSAT 11             
1 32253C 07044B   21361.00000000 -.00000178  00000-0  00000-0 0  3613
2 32253   0.0235 290.9210 0001982   6.5806 115.2227  1.00270472    19
INTELSAT 11         [PM]
1 32253C 07044B   21363.81924769 -.00000172  00000-0  00000-0 0  3637
2 32253   0.0105 328.8467 0001817 332.0963  49.4849  1.00272028    15
INTELSAT 11             
1 32253C 07044B   21364.00000000 -.00000177  00000-0  00000-0 0  3648
2 32253   0.0089 331.5473 0001827 330.0937 114.0356  1.00272126    15
HORIZONS 2          [PM]
1 32388C 07063B   21360.01582176 -.00000090  00000-0  00000-0 0  3604
2 32388   0.0150 323.1727 0002709 309.9382 272.1652  1.00272074    18
HORIZONS 2              
1 32388C 07063B   21361.00000000 -.00000091  00000-0  00000-0 0  3617
2 32388   0.0134 331.1269 0002580 302.5970 266.8282  1.00271860    10
HORIZONS 2              
1 32388C 07063B   21364.00000000 -.00000093  00000-0  00000-0 0  3645
2 32388   0.0106   6.2851 0002347 267.7451 269.4751  1.00271608    13
GALAXY 18           [PM]
1 32951C 08024A   21356.76041667 -.00003373  00000-0  00000-0 0  3562
2 32951   0.0067 323.4368 0003326 307.9802 330.8630  1.00271022    16
GALAXY 18               
1 32951C 08024A   21361.00000000 -.00004365  00000-0  00000-0 0  3619
2 32951   0.0358 186.5617 0002861  91.5961  54.5484  1.00271015    18
GALAXY 18               
1 32951C 08024A   21364.00000000  .00000120  00000-0  00000-0 0  3649
2 32951   0.0069  38.4899 0002646 243.5245  53.6460  1.00272152    16
GALAXY 18           [PM]
1 32951C 08024A   22001.61248843  .00000101  00000-0  00000-0 0    11
2 32951   0.0046 335.8243 0002595 299.7433 283.1695  1.00269521    19
INTELSAT 25             
1 33153C 08034A   21361.00000000 -.00000134  00000-0  00000-0 0  3615
2 33153   0.0320 125.7681 0003025 159.9721 138.4717  1.00270853    14
INTELSAT 25         [PM]
1 33153C 08034A   21363.82119213 -.00003596  00000-0  00000-0 0  3631
2 33153   0.0390 106.8572 0002786 181.3176  74.4347  1.00271559    18
INTELSAT 25             
1 33153C 08034A   21364.00000000 -.00000134  00000-0  00000-0 0  3641
2 33153   0.0398 107.4358 0002786 181.1464 138.5738  1.00271602    18
GALAXY 19               
1 33376C 08045A   21361.00000000 -.00000049  00000-0  00000-0 0  3619
2 33376   0.0238 289.8860 0002799 352.1194  76.7037  1.00270308    12
GALAXY 19           [PM]
1 33376C 08045A   21361.59027778 -.00000049  00000-0  00000-0 0  3614
2 33376   0.0215 294.1614 0002723 349.9027 287.7282  1.00270748    13
GALAXY 19               
1 33376C 08045A   21364.00000000 -.00000043  00000-0  00000-0 0  3649
2 33376   0.0092 330.2713 0002583 316.0676  75.3174  1.00270665    16
INTELSAT 14             
1 36097C 09064A   21361.00000000 -.00003257  00000-0  00000-0 0  3618
2 36097   0.0001 323.5962 0002553 325.0719 122.0407  1.00269706    18
INTELSAT 14         [PM]
1 36097C 09064A   21362.84125000 -.00000208  00000-0  00000-0 0  3623
2 36097   0.0024  20.2715 0002283 265.3960  69.6913  1.00272779    16
INTELSAT 14             
1 36097C 09064A   21364.00000000 -.00000180  00000-0  00000-0 0  3646
2 36097   0.0071  40.5626 0002233 247.1896 125.9010  1.00272571    19
INTELSAT 15             
1 36106C 09067A   21361.00000000 -.00000093  00000-0  00000-0 0  3617
2 36106   0.0140  47.6392 0002084 251.8874 241.3381  1.00270629    13
INTELSAT 15             
1 36106C 09067A   21364.00000000 -.00000092  00000-0  00000-0 0  3642
2 36106   0.0187 330.4956 0001936 332.6363 240.6782  1.00271130    14
INTELSAT 15         [PM]
1 36106C 09067A   21364.55100694 -.00000095  00000-0  00000-0 0  3645
2 36106   0.0162 337.0571 0001935 326.8613  78.7952  1.00271503    18
INTELSAT 16             
1 36397C 10006A   21361.00000000 -.00000152  00000-0  00000-0 0  3610
2 36397   0.0141  55.6736 0001969 228.5073  95.3374  1.00270663    17
INTELSAT 16             
1 36397C 10006A   21364.00000000 -.00000151  00000-0  00000-0 0  3645
2 36397   0.0152 332.1407 0001722 308.4127 101.9093  1.00271790    16
INTELSAT 16         [PM]
1 36397C 10006A   21364.11652778 -.00000155  00000-0  00000-0 0  3646
2 36397   0.0143 333.0214 0001716 307.7730 143.7325  1.00271787    15
INTELSAT 17             
1 37238C 10065B   21361.00000000  .00000087  00000-0  00000-0 0  3616
2 37238   0.0398 233.6262 0002564  52.4565 235.6236  1.00271586    11
INTELSAT 17         [PM]
1 37238C 10065B   21363.05401620 -.00003220  00000-0  00000-0 0  3631
2 37238   0.0373 230.9572 0002308  55.5790 256.6359  1.00270780    12
INTELSAT 17             
1 37238C 10065B   21364.00000000 -.00003291  00000-0  00000-0 0  3643
2 37238   0.0372 227.6507 0002264  59.6839 237.3194  1.00271079    17
INTELSAT NEW DAWN       
1 37392C 11016A   21361.00000000  .00000230  00000-0  00000-0 0  3614
2 37392   0.0296 226.7568 0000994 331.2623 290.4886  1.00272486    19
INTELSAT NEW DAWN       
1 37392C 11016A   21364.00000000 -.00004037  00000-0  00000-0 0  3640
2 37392   0.0370 179.5210 0000828  15.8850 296.0594  1.00271519    18
INTELSAT NEW DAWN   [PM]
1 37392C 11016A   22003.91040509  .00000207  00000-0  00000-0 0    33
2 37392   0.0301 262.4603 0001011 267.1063 294.4456  1.00271605    18
INTELSAT 18             
1 37834C 11056A   21361.00000000  .00000143  00000-0  00000-0 0  3612
2 37834   0.0201 348.9971 0001739 291.3228 355.3900  1.00269976    14
INTELSAT 18             
1 37834C 11056A   21364.00000000  .00000143  00000-0  00000-0 0  3648
2 37834   0.0212  12.1711 0001537 270.3311 356.1509  1.00271115    16
INTELSAT 18         [PM]
1 37834C 11056A   22003.49840278  .00000143  00000-0  00000-0 0    31
2 37834   0.0163  13.7764 0001422 277.7165 171.0161  1.00271217    18
INTELSAT 22             
1 38098C 12011A   21361.00000000  .00000043  00000-0  00000-0 0  3616
2 38098   0.0001  26.5752 0002843 248.9189 252.3134  1.00271332    16
INTELSAT 22         [PM]
1 38098C 12011A   21363.64965278  .00000022  00000-0  00000-0 0  3634
2 38098   0.0117  53.6735 0002603 222.6362 127.9803  1.00270962    10
INTELSAT 22             
1 38098C 12011A   21364.00000000  .00000030  00000-0  00000-0 0  3648
2 38098   0.0131  55.6502 0002572 220.1932 254.9150  1.00271172    11
INTELSAT 19             
1 38356C 12030A   21361.00000000  .00000034  00000-0  00000-0 0  3614
2 38356   0.0238 289.9614 0002272 349.2191 342.5265  1.00271751    13
INTELSAT 19         [PM]
1 38356C 12030A   21363.02872685  .00000033  00000-0  00000-0 0  3635
2 38356   0.0137 315.2298 0002185 324.3896 354.4225  1.00270888    19
INTELSAT 19             
1 38356C 12030A   21364.00000000  .00000033  00000-0  00000-0 0  3649
2 38356   0.0083 332.3949 0002141 307.9568 344.3021  1.00271037    16
INTELSAT 20             
1 38740C 12043A   21360.95401620 -.00003916  00000-0  00000-0 0  3603
2 38740   0.0094  97.2685 0002649  84.2501 326.0912  1.00270020    11
INTELSAT 20             
1 38740C 12043A   21364.00000000 -.00003287  00000-0  00000-0 0  3645
2 38740   0.0412 175.2014 0002759   0.7797 351.1785  1.00270720    14
INTELSAT 20         [PM]
1 38740C 12043A   21364.51180556 -.00003534  00000-0  00000-0 0  3641
2 38740   0.0445 180.9978 0002508 343.4422 187.4679  1.00271547    16
INTELSAT 21             
1 38749C 12045A   21361.00000000 -.00000193  00000-0  00000-0 0  3613
2 38749   0.0055 332.5189 0002052 308.1706 117.0355  1.00271559    11
INTELSAT 21             
1 38749C 12045A   21364.00000000 -.00000195  00000-0  00000-0 0  3641
2 38749   0.0052  22.6588 0001813 261.3675 116.6469  1.00270765    16
INTELSAT 21         [PM]
1 38749C 12045A   22002.87969907 -.00000195  00000-0  00000-0 0    25
2 38749   0.0185  72.6845 0001714 208.3804  80.0942  1.00272640    13
INTELSAT 23             
1 38867C 12057A   21361.00000000 -.00003133  00000-0  00000-0 0  3614
2 38867   0.0296 226.6677 0001659  53.4395 122.5797  1.00268658    17
INTELSAT 23         [PM]
1 38867C 12057A   21363.15769676 -.00000196  00000-0  00000-0 0  3631
2 38867   0.0297 268.5251 0001666   5.8308 187.2307  1.00272003    18
INTELSAT 23             
1 38867C 12057A   21364.00000000 -.00000198  00000-0  00000-0 0  3648
2 38867   0.0253 275.1512 0001629 359.8389 130.6549  1.00271636    15
INTELSAT 30             
1 40271C 14062A   21360.95401620 -.00000088  00000-0  00000-0 0  3605
2 40271   0.0093 321.1046 0002428 149.2702 233.6938  1.00269355    12
INTELSAT 30         [PM]
1 40271C 14062A   21363.36883102 -.00000058  00000-0  00000-0 0  3632
2 40271   0.0097 330.1662 0002714 140.1011  25.4953  1.00272269    13
INTELSAT 30             
1 40271C 14062A   21364.00000000 -.00003098  00000-0  00000-0 0  3640
2 40271   0.0057 351.1940 0002608 117.7397 254.6718  1.00270456    11
INTELSAT 34             
1 40874C 15039A   21360.95401620 -.00000193  00000-0  00000-0 0  3606
2 40874   0.0147 326.5538 0000359 211.7308 205.3393  1.00269699    16
INTELSAT 34             
1 40874C 15039A   21364.00000000 -.00000193  00000-0  00000-0 0  3647
2 40874   0.0124 346.9158 0000483 160.3551 255.8927  1.00269362    12
INTELSAT 34         [PM]
1 40874C 15039A   21364.37817130 -.00000190  00000-0  00000-0 0  3644
2 40874   0.0193 319.9531 0000659 181.4739  38.2425  1.00273336    12
INTELSAT 31             
1 41581C 16035A   21360.95401620 -.00003913  00000-0  00000-0 0  3602
2 41581   0.0307 242.2096 0002118 315.5653 146.2879  1.00270020    16
INTELSAT 31             
1 41581C 16035A   21364.00000000 -.00003477  00000-0  00000-0 0  3648
2 41581   0.0196 282.5898 0002118 268.5240 172.4966  1.00270120    17
INTELSAT 31         [PM]
1 41581C 16035A   21364.38771991 -.00000080  00000-0  00000-0 0  3640
2 41581   0.0278 263.9075 0002271 274.8045 324.8532  1.00272447    17
